#dP2024  3 31  6  0  0.00000000      96 __u+U IGS20 EXT  IAC
## 2308  21600.00000000   900.00000000 60400 0.2500000000000
+  119   C06C07C08C09C10C11C12C13C14C16C19C20C21C22C23C24C25
+        C26C27C28C29C30C32C33C34C35C36C37C38C39C40C41C42C43
+        C44C45C46E02E03E04E05E07E08E09E10E11E12E13E14E15E18
+        E19E21E24E25E26E27E30E31E33E34E36G01G02G03G04G05G06
+        G07G08G09G10G11G12G13G14G15G16G17G18G19G20G21G22G23
+        G24G25G26G27G28G29G30G31G32J02J03J04R01R02R03R04R05
+        R07R08R09R11R12R13R14R15R16R17R18R19R20R21R22R24R25
++        10  8  8  9  9  7  7  8 10  9  9  7  7  7  9  8  9
++         6  8  9  7  8 10  7  9  8  9 10  9 10 10  8  7  8
++         9  7  9  8  6  8  7  8  6  8  7  9  9  8  7  8  7
++         7  7  8  8  8  8  8  7  8  8  8  7  7  7  8  8  7
++         8  7  8  7  9  7  7  7  7  7  7  9  8  7  7  7  7
++         7  7  7  7  7  7  8  7  7  9 10 10  8  8  8  7  8
++         9  8  7  7  8  8  8  7  7  7  8 10  9  8  7  7  7
%c M  cc GPS ccc cccc cccc cccc cccc ccccc ccccc ccccc ccccc
%c cc cc ccc ccc cccc cccc cccc cccc ccccc ccccc ccccc ccccc
%f  0.0000000  0.000000000  0.00000000000  0.000000000000000
%f  0.0000000  0.000000000  0.00000000000  0.000000000000000
%i    0    0    0    0      0      0      0      0         0
%i    0    0    0    0      0      0      0      0         0
/* IAC                                ULTRA-RAPID PREDICTION
/* S/V CLOCKS ARE ALIGNED TO GNSS TIME                      
/* G:C1WC2W R:C1PC2P E:C1XC5X C:C2IC6I J:C1CC2S             
/* PCV:IGS20_2290 OL/AL:FES2004  NONE     YN ORB:CoN CLK:CoN
*  2024 03 31 20 15  0.00000000
PC06   -855.105182  27905.983246  31742.833767    312.566348
PC07 -18376.982157  32093.360387 -20354.193155   -863.203684
PC08  -8244.850081  40181.773293  -9284.406279     14.712670
PC09   5071.783048  30892.475478  28990.484237   -698.414791
PC10 -10644.351611  32187.127782 -25056.019246     21.047215
PC11  26110.834609   1959.928898   9710.156147    488.566680
PC12  22823.215847  13462.520822  -8728.319975   -223.723724
PC13  -2828.768367  41889.946985  -1379.387151    428.433152
PC14  22612.356265  -8475.315436  13948.492387    535.766475
PC16  -5825.604789  24988.280879  33801.987491   -430.124660
PC19 -22208.402572  16003.031074  -5482.171937   -916.317593
PC20 -20237.004553   1371.916178 -19166.586317   -313.366728
PC21   5668.419567  15566.147029  22482.071692   -961.940205
PC22 -11598.213016  22304.726618  12151.641969    -54.937916
PC23   3221.625089 -24787.421278 -12411.613651   -775.568865
PC24  16900.763437  11531.420743 -18984.641946    947.097591
PC25  13788.547976 -10032.069041 -22105.537428    363.338433
PC26  10533.345574  25324.841334  -5065.914470   -270.749268
PC27 -15986.455728 -16469.208394  15841.171148    292.533343
PC28   1955.965147 -16060.783924  22738.608867    223.413663
PC29 -21935.120913   6024.639420 -16169.235194    262.036352
PC30 -26825.541636  -7599.753572    787.576670    -47.607340
PC32  -5744.944250 -15542.318423 -22430.157649   -593.157900
PC33  22127.715006 -16026.800349   5626.960584   -964.970906
PC34  27114.242076   6618.471782    718.046898    402.259506
PC35  -1570.948738  16171.211679 -22706.893092    397.901844
PC36 -14144.156896   9379.662753  22168.601132     36.729114
PC37  -9769.458664 -25723.447722   4732.092868   -951.588807
PC38 -11952.302317  37003.608661 -16091.838855    146.159485
PC39 -10712.588576  21698.946093  34606.286692     -7.819458
PC40 -25619.727126  26505.048725 -20725.390903    -63.367295
PC41  12204.635846 -22340.593994 -11350.379875   -915.886331
PC42  19420.856812    272.625650  20072.330933   -444.555333
PC43  22613.321814  -5420.182558  15432.268875     66.236234
PC44  16445.768981  16004.336868 -15920.515653    430.008816
PC45  -3200.756174  24769.535889  12420.734617    -78.274469
PC46 -16851.220620 -10799.959093  19452.591956   -136.243065
PE02  -9746.626061 -17239.197865  21994.630482    115.744772
PE03 -19306.157394 -10650.015576 -19751.732136   -104.110257
PE04  29261.703521  -2464.616071   3723.132901   -362.781803
PE05   1779.900590 -17304.701914 -23938.596281   4734.284119
PE07 -22262.372094  13735.802863  13874.648752   -112.015072
PE08 -29201.713629   1987.711927  -4454.032456   -247.749290
PE09  22347.416972 -13602.182134 -13824.765135   -390.619601
PE10  17507.543212  -2773.546982  23699.811615   -613.607630
PE11  10151.375049 -12744.254014  24699.565660   3104.396050
PE12  21560.619399   6525.584504  19212.286561   -973.479128
PE13 -10572.296137  12181.778225 -24817.786812    -20.791531
PE14 -12140.016905 -14356.360978  18802.618138     82.268194
PE15 -21653.906302  -7041.478207 -18900.181458    -94.437444
PE18     65.731212  19562.537569 -22912.013105    498.901298
PE19  17290.330616  11759.788885  20964.218785   -328.405863
PE21  -3906.956013  27994.035039  -8791.819813   -586.855497
PE24  16148.193477 -22541.773655 -10409.599216   -682.093061
PE25   4214.185898 -28067.731276   8411.719942      2.792401
PE26   6931.601487  24186.267268 -15596.710532    412.581778
PE27 -15901.261242  22823.283351  10101.894626   -312.809893
PE30 -18396.757960   3989.273462  22824.249192   -151.824996
PE31  18377.870798  -4268.475292 -22809.159384    -19.657026
PE33  19642.980510  22098.053691   1468.038262      9.790653
PE34 -19916.016022 -21806.270812  -2002.739457   -103.100622
PE36  -6470.748707 -23942.440143  16145.405124   -206.995205
PG01  19544.046899   6265.892849  16701.728063    177.106798
PG02  21933.029348  12815.331962   8704.005649   -461.088507
PG03  14292.627950   3413.607616  21974.991994    284.761030
PG04  24739.740613   2637.785454   9504.014384    328.124487
PG05  -8229.062556 -17313.823051 -18516.523902   -167.457610
PG06    210.866919 -18764.826117  18811.970785    343.142173
PG07  16193.336248  -3564.235073 -20343.774923    -97.006605
PG08  19258.945493   7801.967263 -16885.393382     93.034606
PG09  25201.258370  -7917.013021  -3125.509807    144.105369
PG10 -10575.928690  23884.304221  -3524.354487     -4.198022
PG11 -10116.708432 -22832.371336   9137.257257   -623.372530
PG12 -13973.723990  -5556.587254  21606.907467   -492.374691
PG13 -10587.644446 -13482.075043 -20550.295240    638.901844
PG14  13431.623917 -21638.841006  -7139.890076    364.752747
PG15 -19838.063042  -6261.082828 -17116.344202    143.549828
PG16   3056.562740  20941.872488 -16098.149152   -327.919431
PG17  17913.403464 -12987.338729  15228.027291    711.434078
PG18 -15112.201121   4579.287798 -21372.786540   -586.188583
PG19   8649.448156 -14661.691532  20100.957870    461.775983
PG20  -2321.014015 -25103.716116  -8543.463334    381.871931
PG21  21190.778521  16594.372930   3693.076778    129.118939
PG22   9852.934561 -24814.482508   1486.542905      7.405098
PG23 -15232.000834  15897.415899 -14692.353231    190.032250
PG24 -21567.117587 -14736.817333   5480.804920   -453.751209
PG25 -16529.579903   6060.262657  19466.005739    492.700821
PG26  -3030.641512  25810.581761  -4578.798290    172.643846
PG27   7455.015287  13889.249677 -21709.732942    -15.702642
PG28  -2295.736719  17642.451879  19705.413333   -185.426491
PG29 -26283.405034   4039.108637  -1235.660003   -603.270971
PG30   7996.312926 -14162.836541 -20821.274182   -411.875335
PG31   6293.231919  21905.886912  13085.354991   -228.021510
PG32 -14334.224496  14939.409510  16729.398080   -617.325979
PJ02 -32733.175169  25471.475544  12579.971106     -3.524771
PJ03 -24405.537109  17534.464768 -24968.382643     -0.130102
PJ04 -26132.043744  33233.896584   5361.831052     50.556390
PR01   6951.317644   8510.929828  23027.265751     81.204436
PR02  19612.370958  -3691.073288  15977.696859    -22.658047
PR03  21316.706266 -14061.152681   -238.818273     97.387860
PR04  11549.108246 -16172.284344 -15962.844789    230.014149
PR05  -4479.044733  -9825.073016 -23092.258737    129.267416
PR07 -20982.116440  14406.494771   1311.868270     79.210743
PR08 -11063.517504  16307.680070  16244.754723    -74.931917
PR09 -11465.520197  -5915.112186  22007.108681    178.475025
PR11  -2324.448279  24007.410701   8335.990824     29.427988
PR12   6620.534094  22045.938046 -10956.509782     38.460594
PR13  10912.822312   8832.273815 -21313.221079    -45.828117
PR14   8966.870463 -12670.707564 -20226.979922     26.310654
PR15   1791.047018 -24511.413512  -6804.216345     80.884200
PR16  -6575.019222 -22143.498588  10788.910696     24.438390
PR17  15405.408206  -2446.320627  20176.906425     73.941467
PR18    109.360334 -11556.229061  22744.437702    134.889364
PR19 -13652.822255 -15455.394493  15007.685199   -271.416597
PR20 -22719.649051 -10199.261397  -5399.078034   -110.615910
PR21 -15386.935483   2266.680539 -20226.610012    -89.032920
PR22    588.930527  12409.222342 -22256.815760    115.111220
PR24  23187.727115   8819.920002   5930.223798    -49.995913
PR25 -15511.770800   2159.881634 -20135.634163    -26.220591
EOF
